$$SOE
2461295.500000000, A.D. 2026-Sep-12 00:00:00.0000, -1.697765972171638E+08, 3.345763719821467E+08, 2.370867259706420E+07,
2461302.500000000, A.D. 2026-Sep-19 00:00:00.0000, -1.797838005369345E+08, 3.290408084217695E+08, 2.483172819893280E+07,
2461309.500000000, A.D. 2026-Sep-26 00:00:00.0000, -1.896266962954395E+08, 3.232043513329869E+08, 2.593205856424263E+07,
2461316.500000000, A.D. 2026-Oct-03 00:00:00.0000, -1.992960700131522E+08, 3.170719798310573E+08, 2.700862754800004E+07,
2461323.500000000, A.D. 2026-Oct-10 00:00:00.0000, -2.087828549940050E+08, 3.106489752404443E+08, 2.806041986449046E+07,
2461330.500000000, A.D. 2026-Oct-17 00:00:00.0000, -2.180781431874466E+08, 3.039409166068599E+08, 2.908644232830963E+07,
2461337.500000000, A.D. 2026-Oct-24 00:00:00.0000, -2.271731959275909E+08, 2.969536756588395E+08, 3.008572506653991E+07,
2461344.500000000, A.D. 2026-Oct-31 00:00:00.0000, -2.360594544282321E+08, 2.896934111564670E+08, 3.105732268494236E+07,
2461351.500000000, A.D. 2026-Nov-07 00:00:00.0000, -2.447285496721778E+08, 2.821665627066725E+08, 3.200031536054447E+07,
2461358.500000000, A.D. 2026-Nov-14 00:00:00.0000, -2.531723114722931E+08, 2.743798449389183E+08, 3.291380991224611E+07,
2461365.500000000, A.D. 2026-Nov-21 00:00:00.0000, -2.613827784966078E+08, 2.663402427325001E+08, 3.379694106912689E+07,
2461372.500000000, A.D. 2026-Nov-28 00:00:00.0000, -2.693522102351290E+08, 2.580550045010797E+08, 3.464887278016034E+07,
2461379.500000000, A.D. 2026-Dec-05 00:00:00.0000, -2.770730972628363E+08, 2.495316328879532E+08, 3.546879917739394E+07,
2461386.500000000, A.D. 2026-Dec-12 00:00:00.0000, -2.845381696138914E+08, 2.407778759904325E+08, 3.625594542959897E+07,
2461393.500000000, A.D. 2026-Dec-19 00:00:00.0000, -2.917404051397350E+08, 2.318017191363986E+08, 3.700956865857740E+07,
2461400.500000000, A.D. 2026-Dec-26 00:00:00.0000, -2.986730379739683E+08, 2.226113763645007E+08, 3.772895885868716E+07,
2461407.500000000, A.D. 2027-Jan-02 00:00:00.0000, -3.053295668057857E+08, 2.132152814340512E+08, 3.841343977665982E+07,
2461414.500000000, A.D. 2027-Jan-09 00:00:00.0000, -3.117037628226943E+08, 2.036220783997883E+08, 3.906236974019811E+07,
2461421.500000000, A.D. 2027-Jan-16 00:00:00.0000, -3.177896772672307E+08, 1.938406117734517E+08, 3.967514243028802E+07,
2461428.500000000, A.D. 2027-Jan-23 00:00:00.0000, -3.235816485471148E+08, 1.838799162455423E+08, 4.025118758777036E+07,
2461435.500000000, A.D. 2027-Jan-30 00:00:00.0000, -3.290743087024506E+08, 1.737492059359489E+08, 4.078997163207545E+07,
2461442.500000000, A.D. 2027-Feb-06 00:00:00.0000, -3.342625887990471E+08, 1.634578635351010E+08, 4.129099818069800E+07,
2461449.500000000, A.D. 2027-Feb-13 00:00:00.0000, -3.391417237009846E+08, 1.530154305799912E+08, 4.175380861099719E+07,
2461456.500000000, A.D. 2027-Feb-20 00:00:00.0000, -3.437072585788640E+08, 1.424315980996775E+08, 4.217798281581755E+07,
2461463.500000000, A.D. 2027-Feb-27 00:00:00.0000, -3.479550557486955E+08, 1.317161944436902E+08, 4.256313976125477E+07,
2461470.500000000, A.D. 2027-Mar-06 00:00:00.0000, -3.518812988072092E+08, 1.208791722393343E+08, 4.290893772482111E+07,
2461477.500000000, A.D. 2027-Mar-13 00:00:00.0000, -3.554824956505690E+08, 1.099305965437136E+08, 4.321507452586922E+07,
2461484.500000000, A.D. 2027-Mar-20 00:00:00.0000, -3.587554815028396E+08, 9.888063337414671E+07, 4.348128778257775E+07,
2461491.500000000, A.D. 2027-Mar-27 00:00:00.0000, -3.616974217514070E+08, 8.773953809051611E+07, 4.370735513210815E+07,
2461498.500000000, A.D. 2027-Apr-03 00:00:00.0000, -3.643058143854649E+08, 7.651764360482630E+07, 4.389309439187026E+07,
2461505.500000000, A.D. 2027-Apr-10 00:00:00.0000, -3.665784919766670E+08, 6.522534846430761E+07, 4.403836365893126E+07,
2461512.500000000, A.D. 2027-Apr-17 00:00:00.0000, -3.685136231814358E+08, 5.387310481770857E+07, 4.414306134527171E+07,
2461519.500000000, A.D. 2027-Apr-24 00:00:00.0000, -3.701097136878846E+08, 4.247140622682202E+07, 4.420712613737606E+07,
2461526.500000000, A.D. 2027-May-01 00:00:00.0000, -3.713656063102522E+08, 3.103077537493569E+07, 4.423053685565334E+07,
2461533.500000000, A.D. 2027-May-08 00:00:00.0000, -3.722804799262504E+08, 1.956175244364188E+07, 4.421331224723519E+07,
2461540.500000000, A.D. 2027-May-15 00:00:00.0000, -3.728538487580593E+08, 8.074885132904304E+06, 4.415551092790363E+07,
2461547.500000000, A.D. 2027-May-22 00:00:00.0000, -3.730855635686940E+08, -3.419282246959835E+06, 4.405723140577275E+07,
2461554.500000000, A.D. 2027-May-29 00:00:00.0000, -3.729758114284340E+08, -1.491022205748462E+07, 4.391861176058862E+07,
2461561.500000000, A.D. 2027-Jun-05 00:00:00.0000, -3.725251131725882E+08, -2.638743583357206E+07, 4.373982915465333E+07,
2461568.500000000, A.D. 2027-Jun-12 00:00:00.0000, -3.717343205628871E+08, -3.784046555375264E+07, 4.352109939543037E+07,
2461575.500000000, A.D. 2027-Jun-19 00:00:00.0000, -3.706046134942845E+08, -4.925890459799374E+07, 4.326267650508545E+07,
2461582.500000000, A.D. 2027-Jun-26 00:00:00.0000, -3.691374969817986E+08, -6.063240863665202E+07, 4.296485225200909E+07,
2461589.500000000, A.D. 2027-Jul-03 00:00:00.0000, -3.673347978084527E+08, -7.195070642401543E+07, 4.262795563494000E+07,
2461596.500000000, A.D. 2027-Jul-10 00:00:00.0000, -3.651986608101040E+08, -8.320361047071956E+07, 4.225235231895557E+07,
2461603.500000000, A.D. 2027-Jul-17 00:00:00.0000, -3.627315447740510E+08, -9.438102761831993E+07, 4.183844401878069E+07,
2461610.500000000, A.D. 2027-Jul-24 00:00:00.0000, -3.599362178090811E+08, -1.054729695643077E+08, 4.138666781197729E+07,
2461617.500000000, A.D. 2027-Jul-31 00:00:00.0000, -3.568157517901571E+08, -1.164695630883714E+08, 4.089749536561593E+07,
2461624.500000000, A.D. 2027-Aug-07 00:00:00.0000, -3.533735160929675E+08, -1.273610588154044E+08, 4.037143219095825E+07,
2461631.500000000, A.D. 2027-Aug-14 00:00:00.0000, -3.496131729341452E+08, -1.381378387577421E+08, 3.980901711837026E+07,
2461638.500000000, A.D. 2027-Aug-21 00:00:00.0000, -3.455386737166159E+08, -1.487904259926185E+08, 3.921082166303561E+07,
2461645.500000000, A.D. 2027-Aug-28 00:00:00.0000, -3.411542529693078E+08, -1.593094952631308E+08, 3.857744906782319E+07,
2461652.500000000, A.D. 2027-Sep-04 00:00:00.0000, -3.364644210801172E+08, -1.696858819900087E+08, 3.790953333845144E+07,
2461659.500000000, A.D. 2027-Sep-11 00:00:00.0000, -3.314739572326469E+08, -1.799105903463625E+08, 3.720773834649784E+07,
2461666.500000000, A.D. 2027-Sep-18 00:00:00.0000, -3.261879024299573E+08, -1.899748010388586E+08, 3.647275693643044E+07,
2461673.500000000, A.D. 2027-Sep-25 00:00:00.0000, -3.206115523943086E+08, -1.998698788659782E+08, 3.570531001101271E+07,
2461680.500000000, A.D. 2027-Oct-02 00:00:00.0000, -3.147504502835843E+08, -2.095873800175416E+08, 3.490614559185456E+07,
2461687.500000000, A.D. 2027-Oct-09 00:00:00.0000, -3.086103792141834E+08, -2.191190591134105E+08, 3.407603785366082E+07,
2461694.500000000, A.D. 2027-Oct-16 00:00:00.0000, -3.021973545390013E+08, -2.284568760343906E+08, 3.321578612306082E+07,
2461701.500000000, A.D. 2027-Oct-23 00:00:00.0000, -2.955176156358674E+08, -2.375930025533223E+08, 3.232621381964844E+07,
2461708.500000000, A.D. 2027-Oct-30 00:00:00.0000, -2.885776168508919E+08, -2.465198281588979E+08, 3.140816735730962E+07,
2461715.500000000, A.D. 2027-Nov-06 00:00:00.0000, -2.813840187798867E+08, -2.552299639447128E+08, 3.046251520721754E+07,
2461722.500000000, A.D. 2027-Nov-13 00:00:00.0000, -2.739436818907756E+08, -2.637162466394854E+08, 2.949014713685513E+07,
2461729.500000000, A.D. 2027-Nov-20 00:00:00.0000, -2.662636596019163E+08, -2.719717449659738E+08, 2.849197318212484E+07,
2461736.500000000, A.D. 2027-Nov-27 00:00:00.0000, -2.583511892154797E+08, -2.799897653661340E+08, 2.746892244844857E+07,
2461743.500000000, A.D. 2027-Dec-04 00:00:00.0000, -2.502136827438906E+08, -2.877638561793166E+08, 2.642194200284809E+07,
2461750.500000000, A.D. 2027-Dec-11 00:00:00.0000, -2.418587181920352E+08, -2.952878112385118E+08, 2.535199583004615E+07,
2461757.500000000, A.D. 2027-Dec-18 00:00:00.0000, -2.332940310313641E+08, -3.025556732268571E+08, 2.426006380082512E+07,
2461764.500000000, A.D. 2027-Dec-25 00:00:00.0000, -2.245275057255535E+08, -3.095617368021296E+08, 2.314714063986546E+07,
2461771.500000000, A.D. 2028-Jan-01 00:00:00.0000, -2.155671672790533E+08, -3.163005514812212E+08, 2.201423489208210E+07,
$$EOE